FLOCK 4G-25             
1 62646U 25009AP  26068.74572546  .00010373  00000+0  38902-3 0  9990
2 62646  97.4049 151.4141 0000828 316.3151  43.8023 15.27424196 63734
STARLINK-33777          
1 63843U 25093H   26068.41775446  .00011719  00000+0  43492-3 0  9996
2 63843  43.0024  79.1697 0001149 222.3883 137.6880 15.27563587 47936
